{"type": "FeatureCollection", "features": [ {"type": "Feature", "properties": {"norad_id": 34117, "name": "COSMOS 2251 DEB", "group": "cosmos-2251-debris", "lat": 58.06850760588355, "lon": 17.320413303352147, "alt_km": 713.8930332732207, "timestamp": "2025-12-09T09:46:48.039364+00:00", "meta": {"OBJECT_NAME": "COSMOS 2251 DEB", "OBJECT_ID": "1993-036KN", "EPOCH": "2025-12-09T02:49:34.544352", "MEAN_MOTION": 14.39987283, "ECCENTRICITY": 0.005444, "INCLINATION": 74.0401, "RA_OF_ASC_NODE": 350.5203, "ARG_OF_PERICENTER": 67.9757, "MEAN_ANOMALY": 292.7168, "EPHEMERIS_TYPE": 0, "CLASSIFICATION_TYPE": "U", "NORAD_CAT_ID": 34117, "ELEMENT_SET_NO": 999, "REV_AT_EPOCH": 88071, "BSTAR": 0.00081064, "MEAN_MOTION_DOT": 2.572e-05, "MEAN_MOTION_DDOT": 0}, "tle": {"line1": "1 34117U 93036KN  25343.11776093  .00002572  00000+0  81064-3 0  9995", "line2": "2 34117  74.0401 350.5203 0054440  67.9757 292.7168 14.39987283880713"}}, "geometry": {"type": "Point", "coordinates": [17.320413303352147, 58.06850760588355]}}, {"type": "Feature", "properties": {"norad_id": 34118, "name": "COSMOS 2251 DEB", "group": "cosmos-2251-debris", "lat": -27.119183680141134, "lon": 84.52432503566027, "alt_km": 613.0941050960919, "timestamp": "2025-12-09T09:46:48.039375+00:00", "meta": {"OBJECT_NAME": "COSMOS 2251 DEB", "OBJECT_ID": "1993-036KP", "EPOCH": "2025-12-09T04:41:53.624256", "MEAN_MOTION": 14.93715096, "ECCENTRICITY": 0.0059991, "INCLINATION": 73.9524, "RA_OF_ASC_NODE": 256.4752, "ARG_OF_PERICENTER": 87.6927, "MEAN_ANOMALY": 61.7901, "EPHEMERIS_TYPE": 0, "CLASSIFICATION_TYPE": "U", "NORAD_CAT_ID": 34118, "ELEMENT_SET_NO": 999, "REV_AT_EPOCH": 89123, "BSTAR": 0.0023548, "MEAN_MOTION_DOT": 0.00025882, "MEAN_MOTION_DDOT": 0}, "tle": {"line1": "1 34118U 93036KP  25343.19575954  .00025882  00000+0  23548-2 0  9998", "line2": "2 34118  73.9524 256.4752 0059991  87.6927  61.7901 14.93715096891234"}}, "geometry": {"type": "Point", "coordinates": [84.52432503566027, -27.119183680141134]}}, {"type": "Feature", "properties": {"norad_id": 34120, "name": "COSMOS 2251 DEB", "group": "cosmos-2251-debris", "lat": -43.49462970480861, "lon": -153.8134501665396, "alt_km": 916.279159792748, "timestamp": "2025-12-09T09:46:48.039385+00:00", "meta": {"OBJECT_NAME": "COSMOS 2251 DEB", "OBJECT_ID": "1993-036KR", "EPOCH": "2025-12-09T03:41:39.460416", "MEAN_MOTION": 13.9867711, "ECCENTRICITY": 0.0181802, "INCLINATION": 73.9917, "RA_OF_ASC_NODE": 222.4315, "ARG_OF_PERICENTER": 50.9206, "MEAN_ANOMALY": 69.2073, "EPHEMERIS_TYPE": 0, "CLASSIFICATION_TYPE": "U", "NORAD_CAT_ID": 34120, "ELEMENT_SET_NO": 999, "REV_AT_EPOCH": 85930, "BSTAR": 0.00050619, "MEAN_MOTION_DOT": 8.14e-06, "MEAN_MOTION_DDOT": 0}, "tle": {"line1": "1 34120U 93036KR  25343.15392894  .00000814  00000+0  50619-3 0  9995", "line2": "2 34120  73.9917 222.4315 0181802  50.9206  69.2073 13.98677110859304"}}, "geometry": {"type": "Point", "coordinates": [-153.8134501665396, -43.49462970480861]}}, {"type": "Feature", "properties": {"norad_id": 34121, "name": "COSMOS 2251 DEB", "group": "cosmos-2251-debris", "lat": -62.85015558333299, "lon": -43.0798994750892, "alt_km": 841.410315800149, "timestamp": "2025-12-09T09:46:48.039395+00:00", "meta": {"OBJECT_NAME": "COSMOS 2251 DEB", "OBJECT_ID": "1993-036KS", "EPOCH": "2025-12-08T19:20:44.016000", "MEAN_MOTION": 13.91909479, "ECCENTRICITY": 0.02400602, "INCLINATION": 73.993, "RA_OF_ASC_NODE": 103.9114, "ARG_OF_PERICENTER": 310.1997, "MEAN_ANOMALY": 167.3661, "EPHEMERIS_TYPE": 0, "CLASSIFICATION_TYPE": "U", "NORAD_CAT_ID": 34121, "ELEMENT_SET_NO": 999, "REV_AT_EPOCH": 85070, "BSTAR": 0.0019155456, "MEAN_MOTION_DOT": 3.065e-05, "MEAN_MOTION_DDOT": 0}, "tle": {"line1": "1 34121U 93036KS  25342.80606500  .00003065  00000+0  19155-2 0  9999", "line2": "2 34121  73.9930 103.9114 0240060 310.1997 167.3661 13.91909479850707"}}, "geometry": {"type": "Point", "coordinates": [-43.0798994750892, -62.85015558333299]}}, {"type": "Feature", "properties": {"norad_id": 34122, "name": "COSMOS 2251 DEB", "group": "cosmos-2251-debris", "lat": -15.74154382721749, "lon": 120.41730546927806, "alt_km": 635.3682061876334, "timestamp": "2025-12-09T09:46:48.039406+00:00", "meta": {"OBJECT_NAME": "COSMOS 2251 DEB", "OBJECT_ID": "1993-036KT", "EPOCH": "2025-12-08T15:53:27.638016", "MEAN_MOTION": 14.6496702, "ECCENTRICITY": 0.0084104, "INCLINATION": 74.0364, "RA_OF_ASC_NODE": 126.4784, "ARG_OF_PERICENTER": 24.4978, "MEAN_ANOMALY": 350.4182, "EPHEMERIS_TYPE": 0, "CLASSIFICATION_TYPE": "U", "NORAD_CAT_ID": 34122, "ELEMENT_SET_NO": 999, "REV_AT_EPOCH": 88625, "BSTAR": 0.0016181, "MEAN_MOTION_DOT": 9.107e-05, "MEAN_MOTION_DDOT": 0}, "tle": {"line1": "1 34122U 93036KT  25342.66212544  .00009107  00000+0  16181-2 0  9994", "line2": "2 34122  74.0364 126.4784 0084104  24.4978 350.4182 14.64967020886252"}}, "geometry": {"type": "Point", "coordinates": [120.41730546927806, -15.74154382721749]}}, {"type": "Feature", "properties": {"norad_id": 34127, "name": "COSMOS 2251 DEB", "group": "cosmos-2251-debris", "lat": -58.494564082232316, "lon": 22.330027165830423, "alt_km": 736.8808660836467, "timestamp": "2025-12-09T09:46:48.039416+00:00", "meta": {"OBJECT_NAME": "COSMOS 2251 DEB", "OBJECT_ID": "1993-036KY", "EPOCH": "2025-12-08T23:10:52.747392", "MEAN_MOTION": 14.31482955, "ECCENTRICITY": 0.0114826, "INCLINATION": 74.1789, "RA_OF_ASC_NODE": 50.6837, "ARG_OF_PERICENTER": 251.6032, "MEAN_ANOMALY": 290.2382, "EPHEMERIS_TYPE": 0, "CLASSIFICATION_TYPE": "U", "NORAD_CAT_ID": 34127, "ELEMENT_SET_NO": 999, "REV_AT_EPOCH": 86717, "BSTAR": 0.0024365, "MEAN_MOTION_DOT": 6.938e-05, "MEAN_MOTION_DDOT": 0}, "tle": {"line1": "1 34127U 93036KY  25342.96588828  .00006938  00000+0  24365-2 0  9995", "line2": "2 34127  74.1789  50.6837 0114826 251.6032 290.2382 14.31482955867172"}}, "geometry": {"type": "Point", "coordinates": [22.330027165830423, -58.494564082232316]}}, {"type": "Feature", "properties": {"norad_id": 34128, "name": "COSMOS 2251 DEB", "group": "cosmos-2251-debris", "lat": 28.06320092112178, "lon": -47.67865256460666, "alt_km": 546.3355574955422, "timestamp": "2025-12-09T09:46:48.039427+00:00", "meta": {"OBJECT_NAME": "COSMOS 2251 DEB", "OBJECT_ID": "1993-036KZ", "EPOCH": "2025-12-09T00:20:59.019072", "MEAN_MOTION": 15.00875461, "ECCENTRICITY": 0.0026214, "INCLINATION": 74.0004, "RA_OF_ASC_NODE": 304.3232, "ARG_OF_PERICENTER": 57.0942, "MEAN_ANOMALY": 10.2773, "EPHEMERIS_TYPE": 0, "CLASSIFICATION_TYPE": "U", "NORAD_CAT_ID": 34128, "ELEMENT_SET_NO": 999, "REV_AT_EPOCH": 89111, "BSTAR": 0.0022703, "MEAN_MOTION_DOT": 0.00029186, "MEAN_MOTION_DDOT": 0}, "tle": {"line1": "1 34128U 93036KZ  25343.01457198  .00029186  00000+0  22703-2 0  9992", "line2": "2 34128  74.0004 304.3232 0026214  57.0942  10.2773 15.00875461891111"}}, "geometry": {"type": "Point", "coordinates": [-47.67865256460666, 28.06320092112178]}}, {"type": "Feature", "properties": {"norad_id": 34129, "name": "COSMOS 2251 DEB", "group": "cosmos-2251-debris", "lat": -64.99673598379223, "lon": -156.08804879634286, "alt_km": 673.0205057227668, "timestamp": "2025-12-09T09:46:48.039438+00:00", "meta": {"OBJECT_NAME": "COSMOS 2251 DEB", "OBJECT_ID": "1993-036LA", "EPOCH": "2025-12-09T02:08:29.967936", "MEAN_MOTION": 14.75631647, "ECCENTRICITY": 0.0032807, "INCLINATION": 74.0355, "RA_OF_ASC_NODE": 346.6688, "ARG_OF_PERICENTER": 69.3577, "MEAN_ANOMALY": 291.111, "EPHEMERIS_TYPE": 0, "CLASSIFICATION_TYPE": "U", "NORAD_CAT_ID": 34129, "ELEMENT_SET_NO": 999, "REV_AT_EPOCH": 61244, "BSTAR": 0.0015418, "MEAN_MOTION_DOT": 0.00010602, "MEAN_MOTION_DDOT": 0}, "tle": {"line1": "1 34129U 93036LA  25343.08923574  .00010602  00000+0  15418-2 0  9994", "line2": "2 34129  74.0355 346.6688 0032807  69.3577 291.1110 14.75631647612449"}}, "geometry": {"type": "Point", "coordinates": [-156.08804879634286, -64.99673598379223]}}, {"type": "Feature", "properties": {"norad_id": 34136, "name": "COSMOS 2251 DEB", "group": "cosmos-2251-debris", "lat": -7.285957411642734, "lon": 47.10501444444939, "alt_km": 693.0810335465703, "timestamp": "2025-12-09T09:46:48.039448+00:00", "meta": {"OBJECT_NAME": "COSMOS 2251 DEB", "OBJECT_ID": "1993-036LH", "EPOCH": "2025-12-09T03:26:03.884064", "MEAN_MOTION": 14.80038306, "ECCENTRICITY": 0.0086079, "INCLINATION": 74.0209, "RA_OF_ASC_NODE": 49.7257, "ARG_OF_PERICENTER": 173.6378, "MEAN_ANOMALY": 210.7188, "EPHEMERIS_TYPE": 0, "CLASSIFICATION_TYPE": "U", "NORAD_CAT_ID": 34136, "ELEMENT_SET_NO": 999, "REV_AT_EPOCH": 89957, "BSTAR": 0.00065303, "MEAN_MOTION_DOT": 5.234e-05, "MEAN_MOTION_DDOT": 0}, "tle": {"line1": "1 34136U 93036LH  25343.14310051  .00005234  00000+0  65303-3 0  9993", "line2": "2 34136  74.0209  49.7257 0086079 173.6378 210.7188 14.80038306899578"}}, "geometry": {"type": "Point", "coordinates": [47.10501444444939, -7.285957411642734]}}, {"type": "Feature", "properties": {"norad_id": 34139, "name": "COSMOS 2251 DEB", "group": "cosmos-2251-debris", "lat": -32.8542345042387, "lon": -110.24240852354666, "alt_km": 672.3001224010559, "timestamp": "2025-12-09T09:46:48.039459+00:00", "meta": {"OBJECT_NAME": "COSMOS 2251 DEB", "OBJECT_ID": "1993-036LL", "EPOCH": "2025-12-09T03:54:22.527072", "MEAN_MOTION": 14.58982562, "ECCENTRICITY": 0.0042555, "INCLINATION": 74.0312, "RA_OF_ASC_NODE": 260.8803, "ARG_OF_PERICENTER": 332.5696, "MEAN_ANOMALY": 148.3017, "EPHEMERIS_TYPE": 0, "CLASSIFICATION_TYPE": "U", "NORAD_CAT_ID": 34139, "ELEMENT_SET_NO": 999, "REV_AT_EPOCH": 88097, "BSTAR": 0.0019103, "MEAN_MOTION_DOT": 9.061e-05, "MEAN_MOTION_DDOT": 0}, "tle": {"line1": "1 34139U 93036LL  25343.16276073  .00009061  00000+0  19103-2 0  9991", "line2": "2 34139  74.0312 260.8803 0042555 332.5696 148.3017 14.58982562880977"}}, "geometry": {"type": "Point", "coordinates": [-110.24240852354666, -32.8542345042387]}}]}